{
  "type": "FeatureCollection",
  "features": [
    {
      "type": "Feature",
      "properties": {
        "norad_id": 35618,
        "name": "IRIDIUM 33 DEB",
        "group": "iridium-33-debris",
        "lat": 13.348793454848408,
        "lon": 166.73743952564845,
        "alt_km": 739.025893082905,
        "timestamp": "2025-12-26T05:31:12.892012+00:00",
        "meta_object_name": "IRIDIUM 33 DEB",
        "meta_object_id": "1997-051QQ",
        "meta_epoch": "2025-12-21T17:16:24.492288",
        "meta_mean_motion": 14.52331103,
        "meta_eccentricity": 0.00284149,
        "meta_inclination": 86.341,
        "meta_ra_of_asc_node": 349.5786,
        "meta_arg_of_pericenter": 351.4344,
        "meta_mean_anomaly": 8.6373,
        "meta_ephemeris_type": 0,
        "meta_classification_type": "U",
        "meta_norad_cat_id": 35618,
        "meta_element_set_no": 999,
        "meta_rev_at_epoch": 65524,
        "meta_bstar": 0.00039049847,
        "meta_mean_motion_dot": 1.617e-05,
        "meta_mean_motion_ddot": 0,
        "tle_line1": "1 35618U 97051QQ  25355.71972792  .00001617  00000+0  39050-3 0  9993",
        "tle_line2": "2 35618  86.3410 349.5786 0028414 351.4344   8.6373 14.52331103655244"
      },
      "geometry": {
        "type": "Point",
        "coordinates": [
          166.73743952564845,
          13.348793454848408
        ]
      }
    },
    {
      "type": "Feature",
      "properties": {
        "norad_id": 35620,
        "name": "IRIDIUM 33 DEB",
        "group": "iridium-33-debris",
        "lat": -6.540746146165881,
        "lon": 32.178776148446545,
        "alt_km": 679.6494636825382,
        "timestamp": "2025-12-26T05:31:12.892023+00:00",
        "meta_object_name": "IRIDIUM 33 DEB",
        "meta_object_id": "1997-051QS",
        "meta_epoch": "2025-12-24T07:34:12.963648",
        "meta_mean_motion": 14.38396346,
        "meta_eccentricity": 0.01383994,
        "meta_inclination": 86.3888,
        "meta_ra_of_asc_node": 212.5717,
        "meta_arg_of_pericenter": 220.3755,
        "meta_mean_anomaly": 138.7108,
        "meta_ephemeris_type": 0,
        "meta_classification_type": "U",
        "meta_norad_cat_id": 35620,
        "meta_element_set_no": 999,
        "meta_rev_at_epoch": 60132,
        "meta_bstar": 0.0050036177,
        "meta_mean_motion_dot": 0.00017094,
        "meta_mean_motion_ddot": 0,
        "tle_line1": "1 35620U 97051QS  25358.31542782  .00017094  00000+0  50036-2 0  9999",
        "tle_line2": "2 35620  86.3888 212.5717 0138399 220.3755 138.7108 14.38396346601328"
      },
      "geometry": {
        "type": "Point",
        "coordinates": [
          32.178776148446545,
          -6.540746146165881
        ]
      }
    },
    {
      "type": "Feature",
      "properties": {
        "norad_id": 35622,
        "name": "IRIDIUM 33 DEB",
        "group": "iridium-33-debris",
        "lat": -69.94870382132184,
        "lon": -113.54912079455791,
        "alt_km": 553.2696628731483,
        "timestamp": "2025-12-26T05:31:12.892046+00:00",
        "meta_object_name": "IRIDIUM 33 DEB",
        "meta_object_id": "1997-051QU",
        "meta_epoch": "2025-12-25T17:12:10.126368",
        "meta_mean_motion": 15.06103394,
        "meta_eccentricity": 0.0003068,
        "meta_inclination": 86.1982,
        "meta_ra_of_asc_node": 257.202,
        "meta_arg_of_pericenter": 275.1977,
        "meta_mean_anomaly": 113.6581,
        "meta_ephemeris_type": 0,
        "meta_classification_type": "U",
        "meta_norad_cat_id": 35622,
        "meta_element_set_no": 999,
        "meta_rev_at_epoch": 87555,
        "meta_bstar": 0.0039806522,
        "meta_mean_motion_dot": 0.00058587,
        "meta_mean_motion_ddot": 0,
        "tle_line1": "1 35622U 97051QU  25359.71678387  .00058587  00000+0  39807-2 0  9992",
        "tle_line2": "2 35622  86.1982 257.2020 0003068 275.1977 113.6581 15.06103394875554"
      },
      "geometry": {
        "type": "Point",
        "coordinates": [
          -113.54912079455791,
          -69.94870382132184
        ]
      }
    },
    {
      "type": "Feature",
      "properties": {
        "norad_id": 35628,
        "name": "IRIDIUM 33 DEB",
        "group": "iridium-33-debris",
        "lat": 85.98372601146461,
        "lon": 68.21274040223035,
        "alt_km": 666.765418531978,
        "timestamp": "2025-12-26T05:31:12.892058+00:00",
        "meta_object_name": "IRIDIUM 33 DEB",
        "meta_object_id": "1997-051RA",
        "meta_epoch": "2025-12-24T07:18:18.749088",
        "meta_mean_motion": 14.67742209,
        "meta_eccentricity": 0.00093407,
        "meta_inclination": 86.3568,
        "meta_ra_of_asc_node": 3.9163,
        "meta_arg_of_pericenter": 298.0786,
        "meta_mean_anomaly": 61.9483,
        "meta_ephemeris_type": 0,
        "meta_classification_type": "U",
        "meta_norad_cat_id": 35628,
        "meta_element_set_no": 999,
        "meta_rev_at_epoch": 86616,
        "meta_bstar": 0.0014718585,
        "meta_mean_motion_dot": 8.414e-05,
        "meta_mean_motion_ddot": 0,
        "tle_line1": "1 35628U 97051RA  25358.30438367  .00008414  00000+0  14719-2 0  9993",
        "tle_line2": "2 35628  86.3568   3.9163 0009340 298.0786  61.9483 14.67742209866160"
      },
      "geometry": {
        "type": "Point",
        "coordinates": [
          68.21274040223035,
          85.98372601146461
        ]
      }
    },
    {
      "type": "Feature",
      "properties": {
        "norad_id": 35631,
        "name": "IRIDIUM 33 DEB",
        "group": "iridium-33-debris",
        "lat": 77.16712368119825,
        "lon": 31.364078462843015,
        "alt_km": 713.4688818091854,
        "timestamp": "2025-12-26T05:31:12.892068+00:00",
        "meta_object_name": "IRIDIUM 33 DEB",
        "meta_object_id": "1997-051RD",
        "meta_epoch": "2025-12-25T01:14:45.811104",
        "meta_mean_motion": 14.47344148,
        "meta_eccentricity": 0.00192475,
        "meta_inclination": 86.3663,
        "meta_ra_of_asc_node": 15.6731,
        "meta_arg_of_pericenter": 81.4254,
        "meta_mean_anomaly": 341.8279,
        "meta_ephemeris_type": 0,
        "meta_classification_type": "U",
        "meta_norad_cat_id": 35631,
        "meta_element_set_no": 999,
        "meta_rev_at_epoch": 87375,
        "meta_bstar": 0.00038061169,
        "meta_mean_motion_dot": 1.417e-05,
        "meta_mean_motion_ddot": 0,
        "tle_line1": "1 35631U 97051RD  25359.05191911  .00001417  00000+0  38061-3 0  9994",
        "tle_line2": "2 35631  86.3663  15.6731 0019247  81.4254 341.8279 14.47344148873756"
      },
      "geometry": {
        "type": "Point",
        "coordinates": [
          31.364078462843015,
          77.16712368119825
        ]
      }
    },
    {
      "type": "Feature",
      "properties": {
        "norad_id": 35680,
        "name": "IRIDIUM 33 DEB",
        "group": "iridium-33-debris",
        "lat": -32.44652468620926,
        "lon": -161.96805551002956,
        "alt_km": 727.467019737689,
        "timestamp": "2025-12-26T05:31:12.892079+00:00",
        "meta_object_name": "IRIDIUM 33 DEB",
        "meta_object_id": "1997-051RJ",
        "meta_epoch": "2025-12-25T12:20:44.933280",
        "meta_mean_motion": 14.2111887,
        "meta_eccentricity": 0.015075,
        "meta_inclination": 86.1022,
        "meta_ra_of_asc_node": 15.8645,
        "meta_arg_of_pericenter": 237.61,
        "meta_mean_anomaly": 276.707,
        "meta_ephemeris_type": 0,
        "meta_classification_type": "U",
        "meta_norad_cat_id": 35680,
        "meta_element_set_no": 999,
        "meta_rev_at_epoch": 60882,
        "meta_bstar": 0.0034387,
        "meta_mean_motion_dot": 8.4e-05,
        "meta_mean_motion_ddot": 0,
        "tle_line1": "1 35680U 97051RJ  25359.51440895  .00008400  00000+0  34387-2 0  9992",
        "tle_line2": "2 35680  86.1022  15.8645 0150750 237.6100 276.7070 14.21118870608825"
      },
      "geometry": {
        "type": "Point",
        "coordinates": [
          -161.96805551002956,
          -32.44652468620926
        ]
      }
    },
    {
      "type": "Feature",
      "properties": {
        "norad_id": 35744,
        "name": "IRIDIUM 33 DEB",
        "group": "iridium-33-debris",
        "lat": 28.417724649747857,
        "lon": 137.3496582797055,
        "alt_km": 640.8466550489338,
        "timestamp": "2025-12-26T05:31:12.892089+00:00",
        "meta_object_name": "IRIDIUM 33 DEB",
        "meta_object_id": "1997-051RX",
        "meta_epoch": "2025-12-24T15:17:19.932000",
        "meta_mean_motion": 14.71145759,
        "meta_eccentricity": 0.00219113,
        "meta_inclination": 86.3301,
        "meta_ra_of_asc_node": 320.0594,
        "meta_arg_of_pericenter": 150.6894,
        "meta_mean_anomaly": 209.5557,
        "meta_ephemeris_type": 0,
        "meta_classification_type": "U",
        "meta_norad_cat_id": 35744,
        "meta_element_set_no": 999,
        "meta_rev_at_epoch": 87506,
        "meta_bstar": 0.0011850025,
        "meta_mean_motion_dot": 7.344e-05,
        "meta_mean_motion_ddot": 0,
        "tle_line1": "1 35744U 97051RX  25358.63703625  .00007344  00000+0  11850-2 0  9994",
        "tle_line2": "2 35744  86.3301 320.0594 0021911 150.6894 209.5557 14.71145759875069"
      },
      "geometry": {
        "type": "Point",
        "coordinates": [
          137.3496582797055,
          28.417724649747857
        ]
      }
    }
  ]
}